ZACUBE-1 (TSHEPISOSAT)  
1 39417U 13066B   26115.87574143  .00005869  00000+0  45820-3 0  9993
2 39417  97.8121  77.9322 0044222  67.9289 292.6622 15.00744100672881
WNISAT-1                
1 39423U 13066H   26115.84920729  .00000677  00000+0  13122-3 0  9994
2 39423  97.7133 268.7418 0164008  37.2017 324.0414 14.57998402659106
TRITON-1                
1 39427U 13066M   26115.95517595  .00003686  00000+0  44459-3 0  9993
2 39427  97.8269  26.9540 0091543  45.2652 315.5966 14.81445215666356
GOMX-1                  
1 39430U 13066Q   26115.81771684  .00001373  00000+0  21358-3 0  9997
2 39430  97.6529 319.5780 0127550 245.5389 113.2470 14.69258291662221
CUBEBUG-2 (LO-74)       
1 39440U 13066AA  26115.80650799  .00003736  00000+0  35043-3 0  9991
2 39440  97.8871  64.5922 0057328 199.5050 160.3976 14.93386841669172
NEE-02 KRYSAOR          
1 39441U 13066AB  26115.77236895  .00001541  00000+0  17450-3 0  9999
2 39441  97.8866  55.3782 0064892 241.0668 118.4030 14.86426759668417
FUNCUBE-1 (AO-73)       
1 39444U 13066AE  26115.87476991  .00011188  00000+0  70498-3 0  9995
2 39444  97.8238  86.2682 0037565  24.4509 335.8490 15.08734881671770
UWE-3                   
1 39446U 13066AG  26115.87173807  .00004247  00000+0  36882-3 0  9994
2 39446  97.8653  71.6258 0050448 133.0034 227.5431 14.96585865669754
BRITE-CA1 (TORONTO)     
1 40020U 14033L   26115.92327335  .00001043  00000+0  16376-3 0  9999
2 40020  97.9657 245.8412 0080058  84.4504 276.5828 14.72596954634523
DUCHIFAT-1              
1 40021U 14033M   26115.67407460  .00065753  00000+0  94543-3 0  9990
2 40021  98.0542 167.8552 0004049 235.8806 124.2063 15.55855059647564
NANOSATC-BR1            
1 40024U 14033Q   26115.57806584  .00016189  00000+0  56375-3 0  9992
2 40024  98.0779 143.3656 0003805  37.3997 322.7506 15.29765088645937
QB50P1                  
1 40025U 14033R   26115.93786532  .00010290  00000+0  51741-3 0  9992
2 40025  98.0995 123.4516 0010223  53.1884 307.0285 15.17416760645101
QB50P2                  
1 40032U 14033Y   26115.91562418  .00009152  00000+0  50102-3 0  9998
2 40032  98.0756 109.5740 0007504   8.3224 351.8129 15.14463809644753
PERSEUS-M2              
1 40037U 14033AD  26115.93890914  .00001888  00000+0  17647-3 0  9995
2 40037  97.9923  65.4350 0013346 109.9515 250.3144 14.95340543642970
PERSEUS-M1              
1 40039U 14033AF  26115.78206592  .00001927  00000+0  17944-3 0  9997
2 40039  97.9610  59.0727 0013096 109.0977 251.1662 14.95448126642809
POLYITAN-1              
1 40042U 14033AJ  26115.61466636  .00017845  00000+0  58983-3 0  9994
2 40042  98.0997 136.9721 0006232 346.1051  14.0016 15.31424240645548
